SL-16 R/B               
1 22566U 93016B   26055.98735459  .00000167  00000+0  11045-3 0  9995
2 22566  71.0045 241.8612 0010970 331.7770  28.2757 14.15300763700377
COSMOS 2242             
1 22626U 93024A   26056.13246472  .00001588  00000+0  13726-3 0  9997
2 22626  82.5166 278.7297 0016195 353.1336   6.9661 14.96490434778516
SL-16 R/B               
1 22803U 93059B   26056.26635090  .00000264  00000+0  15439-3 0  9997
2 22803  70.9904  37.3237 0019000 233.6382 126.2989 14.17229197677772
ARIANE 40 R/B           
1 22830U 93061H   26056.19888695  .00000172  00000+0  78772-4 0  9991
2 22830  98.4944 125.3315 0009871 326.0872  33.9680 14.32853377692311
COSMOS 2278             
1 23087U 94023A   26055.86743185  .00000396  00000+0  23138-3 0  9995
2 23087  71.0526 201.9215 0007363  38.9468 321.2184 14.14369783642997
SL-16 R/B               
1 23088U 94023B   26056.27315175  .00000093  00000+0  72773-4 0  9990
2 23088  70.9990  96.9653 0005269 297.4840  62.5747 14.15012658644335
SL-16 R/B               
1 23343U 94074B   26056.07001076  .00000409  00000+0  61513-4 0  9991
2 23343  97.7127  87.3979 0005136 260.4112 119.3946 14.79390812685381
SL-16 R/B               
1 23405U 94077B   26056.25959673 -.00000114  00000+0 -33747-4 0  9991
2 23405  70.9846  18.6372 0003704 226.5863 133.4952 14.15563964614476
ARIANE 40+ R/B          
1 23561U 95021B   26056.23612673  .00000275  00000+0  10170-3 0  9998
2 23561  98.4523 127.8857 0007077 170.0389 241.0517 14.39762245617453
SL-16 R/B               
1 23705U 95058B   26055.48862047 -.00000230  00000+0 -93367-4 0  9999
2 23705  71.0204 207.9684 0011202 149.2102 210.9681 14.15494214565989
SL-16 R/B               
1 24298U 96051B   26056.13487741  .00000088  00000+0  74533-4 0  9991
2 24298  70.7587 201.8109 0016201 166.2212 193.9354 14.12411948519871
ORBVIEW 2 (SEASTAR)     
1 24883U 97037A   26056.28968625  .00000287  00000+0  11595-3 0  9996
2 24883  98.8546 220.2745 0003210  96.9300 263.2250 14.35483867506697
