CCSDS_OMM_VERS = 2.0
CREATION_DATE  = 
ORIGINATOR     = 

OBJECT_NAME    = SL-16 R/B
OBJECT_ID      = 1993-016B
CENTER_NAME    = EARTH
REF_FRAME      = TEME
TIME_SYSTEM    = UTC
MEAN_ELEMENT_THEORY = SGP/SGP4

EPOCH          = 2026-02-24T23:41:47.436576
MEAN_MOTION    = 14.15300763
ECCENTRICITY   = .00109709
INCLINATION    = 71.0045
RA_OF_ASC_NODE = 241.8612
ARG_OF_PERICENTER = 331.7770
MEAN_ANOMALY   = 28.2757

EPHEMERIS_TYPE = 0
CLASSIFICATION_TYPE = U
NORAD_CAT_ID   = 22566
ELEMENT_SET_NO = 999
REV_AT_EPOCH   = 70037
BSTAR          = .11045273E-3
MEAN_MOTION_DOT = .167E-5
MEAN_MOTION_DDOT = 0

CCSDS_OMM_VERS = 2.0
CREATION_DATE  = 
ORIGINATOR     = 

OBJECT_NAME    = COSMOS 2242
OBJECT_ID      = 1993-024A
CENTER_NAME    = EARTH
REF_FRAME      = TEME
TIME_SYSTEM    = UTC
MEAN_ELEMENT_THEORY = SGP/SGP4

EPOCH          = 2026-02-25T03:10:44.951808
MEAN_MOTION    = 14.96490434
ECCENTRICITY   = .00161951
INCLINATION    = 82.5166
RA_OF_ASC_NODE = 278.7297
ARG_OF_PERICENTER = 353.1336
MEAN_ANOMALY   = 6.9661

EPHEMERIS_TYPE = 0
CLASSIFICATION_TYPE = U
NORAD_CAT_ID   = 22626
ELEMENT_SET_NO = 999
REV_AT_EPOCH   = 77851
BSTAR          = .1372579E-3
MEAN_MOTION_DOT = .1588E-4
MEAN_MOTION_DDOT = 0

CCSDS_OMM_VERS = 2.0
CREATION_DATE  = 
ORIGINATOR     = 

OBJECT_NAME    = SL-16 R/B
OBJECT_ID      = 1993-059B
CENTER_NAME    = EARTH
REF_FRAME      = TEME
TIME_SYSTEM    = UTC
MEAN_ELEMENT_THEORY = SGP/SGP4

EPOCH          = 2026-02-25T06:23:32.717760
MEAN_MOTION    = 14.17229197
ECCENTRICITY   = .00190003
INCLINATION    = 70.9904
RA_OF_ASC_NODE = 37.3237
ARG_OF_PERICENTER = 233.6382
MEAN_ANOMALY   = 126.2989

EPHEMERIS_TYPE = 0
CLASSIFICATION_TYPE = U
NORAD_CAT_ID   = 22803
ELEMENT_SET_NO = 999
REV_AT_EPOCH   = 67777
BSTAR          = .15438807E-3
MEAN_MOTION_DOT = .264E-5
MEAN_MOTION_DDOT = 0

CCSDS_OMM_VERS = 2.0
CREATION_DATE  = 
ORIGINATOR     = 

OBJECT_NAME    = ARIANE 40 R/B
OBJECT_ID      = 1993-061H
CENTER_NAME    = EARTH
REF_FRAME      = TEME
TIME_SYSTEM    = UTC
MEAN_ELEMENT_THEORY = SGP/SGP4

EPOCH          = 2026-02-25T04:46:23.832480
MEAN_MOTION    = 14.32853377
ECCENTRICITY   = .00098712
INCLINATION    = 98.4944
RA_OF_ASC_NODE = 125.3315
ARG_OF_PERICENTER = 326.0872
MEAN_ANOMALY   = 33.9680

EPHEMERIS_TYPE = 0
CLASSIFICATION_TYPE = U
NORAD_CAT_ID   = 22830
ELEMENT_SET_NO = 999
REV_AT_EPOCH   = 69231
BSTAR          = .78772487E-4
MEAN_MOTION_DOT = .172E-5
MEAN_MOTION_DDOT = 0

CCSDS_OMM_VERS = 2.0
CREATION_DATE  = 
ORIGINATOR     = 

OBJECT_NAME    = COSMOS 2278
OBJECT_ID      = 1994-023A
CENTER_NAME    = EARTH
REF_FRAME      = TEME
TIME_SYSTEM    = UTC
MEAN_ELEMENT_THEORY = SGP/SGP4

EPOCH          = 2026-02-24T20:49:06.111840
MEAN_MOTION    = 14.14369783
ECCENTRICITY   = .0007363
INCLINATION    = 71.0526
RA_OF_ASC_NODE = 201.9215
ARG_OF_PERICENTER = 38.9468
MEAN_ANOMALY   = 321.2184

EPHEMERIS_TYPE = 0
CLASSIFICATION_TYPE = U
NORAD_CAT_ID   = 23087
ELEMENT_SET_NO = 999
REV_AT_EPOCH   = 64299
BSTAR          = .23138E-3
MEAN_MOTION_DOT = .396E-5
MEAN_MOTION_DDOT = 0

CCSDS_OMM_VERS = 2.0
CREATION_DATE  = 
ORIGINATOR     = 

OBJECT_NAME    = SL-16 R/B
OBJECT_ID      = 1994-023B
CENTER_NAME    = EARTH
REF_FRAME      = TEME
TIME_SYSTEM    = UTC
MEAN_ELEMENT_THEORY = SGP/SGP4

EPOCH          = 2026-02-25T06:33:20.311200
MEAN_MOTION    = 14.15012658
ECCENTRICITY   = .00052698
INCLINATION    = 70.9990
RA_OF_ASC_NODE = 96.9653
ARG_OF_PERICENTER = 297.4840
MEAN_ANOMALY   = 62.5747

EPHEMERIS_TYPE = 0
CLASSIFICATION_TYPE = U
NORAD_CAT_ID   = 23088
ELEMENT_SET_NO = 999
REV_AT_EPOCH   = 64433
BSTAR          = .72773402E-4
MEAN_MOTION_DOT = .93E-6
MEAN_MOTION_DDOT = 0

CCSDS_OMM_VERS = 2.0
CREATION_DATE  = 
ORIGINATOR     = 

OBJECT_NAME    = SL-16 R/B
OBJECT_ID      = 1994-074B
CENTER_NAME    = EARTH
REF_FRAME      = TEME
TIME_SYSTEM    = UTC
MEAN_ELEMENT_THEORY = SGP/SGP4

EPOCH          = 2026-02-25T01:40:48.929664
MEAN_MOTION    = 14.79390812
ECCENTRICITY   = .0005136
INCLINATION    = 97.7127
RA_OF_ASC_NODE = 87.3979
ARG_OF_PERICENTER = 260.4112
MEAN_ANOMALY   = 119.3946

EPHEMERIS_TYPE = 0
CLASSIFICATION_TYPE = U
NORAD_CAT_ID   = 23343
ELEMENT_SET_NO = 999
REV_AT_EPOCH   = 68538
BSTAR          = .6151308E-4
MEAN_MOTION_DOT = .409E-5
MEAN_MOTION_DDOT = 0

CCSDS_OMM_VERS = 2.0
CREATION_DATE  = 
ORIGINATOR     = 

OBJECT_NAME    = SL-16 R/B
OBJECT_ID      = 1994-077B
CENTER_NAME    = EARTH
REF_FRAME      = TEME
TIME_SYSTEM    = UTC
MEAN_ELEMENT_THEORY = SGP/SGP4

EPOCH          = 2026-02-25T06:13:49.157472
MEAN_MOTION    = 14.15563964
ECCENTRICITY   = .00037047
INCLINATION    = 70.9846
RA_OF_ASC_NODE = 18.6372
ARG_OF_PERICENTER = 226.5863
MEAN_ANOMALY   = 133.4952

EPHEMERIS_TYPE = 0
CLASSIFICATION_TYPE = U
NORAD_CAT_ID   = 23405
ELEMENT_SET_NO = 999
REV_AT_EPOCH   = 61447
BSTAR          = -.33747385E-4
MEAN_MOTION_DOT = -.114E-5
MEAN_MOTION_DDOT = 0

CCSDS_OMM_VERS = 2.0
CREATION_DATE  = 
ORIGINATOR     = 

OBJECT_NAME    = ARIANE 40+ R/B
OBJECT_ID      = 1995-021B
CENTER_NAME    = EARTH
REF_FRAME      = TEME
TIME_SYSTEM    = UTC
MEAN_ELEMENT_THEORY = SGP/SGP4

EPOCH          = 2026-02-25T05:40:01.349472
MEAN_MOTION    = 14.39762245
ECCENTRICITY   = .00070771
INCLINATION    = 98.4523
RA_OF_ASC_NODE = 127.8857
ARG_OF_PERICENTER = 170.0389
MEAN_ANOMALY   = 241.0517

EPHEMERIS_TYPE = 0
CLASSIFICATION_TYPE = U
NORAD_CAT_ID   = 23561
ELEMENT_SET_NO = 999
REV_AT_EPOCH   = 61745
BSTAR          = .10169845E-3
MEAN_MOTION_DOT = .275E-5
MEAN_MOTION_DDOT = 0

CCSDS_OMM_VERS = 2.0
CREATION_DATE  = 
ORIGINATOR     = 

OBJECT_NAME    = SL-16 R/B
OBJECT_ID      = 1995-058B
CENTER_NAME    = EARTH
REF_FRAME      = TEME
TIME_SYSTEM    = UTC
MEAN_ELEMENT_THEORY = SGP/SGP4

EPOCH          = 2026-02-24T11:43:36.808608
MEAN_MOTION    = 14.15494214
ECCENTRICITY   = .00112024
INCLINATION    = 71.0204
RA_OF_ASC_NODE = 207.9684
ARG_OF_PERICENTER = 149.2102
MEAN_ANOMALY   = 210.9681

EPHEMERIS_TYPE = 0
CLASSIFICATION_TYPE = U
NORAD_CAT_ID   = 23705
ELEMENT_SET_NO = 999
REV_AT_EPOCH   = 56598
BSTAR          = -.93367213E-4
MEAN_MOTION_DOT = -.23E-5
MEAN_MOTION_DDOT = 0

CCSDS_OMM_VERS = 2.0
CREATION_DATE  = 
ORIGINATOR     = 

OBJECT_NAME    = SL-16 R/B
OBJECT_ID      = 1996-051B
CENTER_NAME    = EARTH
REF_FRAME      = TEME
TIME_SYSTEM    = UTC
MEAN_ELEMENT_THEORY = SGP/SGP4

EPOCH          = 2026-02-25T03:14:13.408224
MEAN_MOTION    = 14.12411948
ECCENTRICITY   = .00162011
INCLINATION    = 70.7587
RA_OF_ASC_NODE = 201.8109
ARG_OF_PERICENTER = 166.2212
MEAN_ANOMALY   = 193.9354

EPHEMERIS_TYPE = 0
CLASSIFICATION_TYPE = U
NORAD_CAT_ID   = 24298
ELEMENT_SET_NO = 999
REV_AT_EPOCH   = 51987
BSTAR          = .7453327E-4
MEAN_MOTION_DOT = .88E-6
MEAN_MOTION_DDOT = 0

CCSDS_OMM_VERS = 2.0
CREATION_DATE  = 
ORIGINATOR     = 

OBJECT_NAME    = ORBVIEW 2 (SEASTAR)
OBJECT_ID      = 1997-037A
CENTER_NAME    = EARTH
REF_FRAME      = TEME
TIME_SYSTEM    = UTC
MEAN_ELEMENT_THEORY = SGP/SGP4

EPOCH          = 2026-02-25T06:57:08.892000
MEAN_MOTION    = 14.35483867
ECCENTRICITY   = .00032108
INCLINATION    = 98.8546
RA_OF_ASC_NODE = 220.2745
ARG_OF_PERICENTER = 96.9300
MEAN_ANOMALY   = 263.2250

EPHEMERIS_TYPE = 0
CLASSIFICATION_TYPE = U
NORAD_CAT_ID   = 24883
ELEMENT_SET_NO = 999
REV_AT_EPOCH   = 50669
BSTAR          = .11594751E-3
MEAN_MOTION_DOT = .287E-5
MEAN_MOTION_DDOT = 0

